{"type":"FeatureCollection","features":[{"type":"Feature","properties":{"nhood":"C"},"geometry":{"type":"Polygon","coordinates":[[[-122.275827,37.80947],[-122.272708,37.81261],[-122.271022,37.816803],[-122.268024,37.824261],[-122.259978,37.82232],[-122.258668,37.824393],[-122.256588,37.823208],[-122.254644,37.821723],[-122.25439,37.819568],[-122.252247,37.817383],[-122.251037,37.814308],[-122.250269,37.811571],[-122.248613,37.810221],[-122.249875,37.808613],[-122.25708,37.808849],[-122.261241,37.810806],[-122.262271,37.810876],[-122.263327,37.807467],[-122.262083,37.80521],[-122.260814,37.804198],[-122.262359,37.800867],[-122.26173,37.799459],[-122.25938,37.798507],[-122.259652,37.796312],[-122.256669,37.793736],[-122.257517,37.792994],[-122.25587,37.791341],[-122.253636,37.7891],[-122.25176,37.787582],[-122.258584,37.785461],[-122.261971,37.786828],[-122.266619,37.78882],[-122.274331,37.792183],[-122.28095,37.79509],[-122.283693,37.794362],[-122.283006,37.797336],[-122.280554,37.801152],[-122.27847,37.804577],[-122.277308,37.80673],[-122.275827,37.80947]],[[-122.266293,37.795568],[-122.274646,37.79884],[-122.280554,37.801152],[-122.266293,37.795568]]]}},{"type":"Feature","properties":{"nhood":"CE"},"geometry":{"type":"Polygon","coordinates":[[[-122.215823,37.773291],[-122.212901,37.775649],[-122.210592,37.775912],[-122.20645,37.780173],[-122.204183,37.782507],[-122.196017,37.786709],[-122.194379,37.785615],[-122.188471,37.784522],[-122.177221,37.783792],[-122.171819,37.780155],[-122.168741,37.778601],[-122.164022,37.776352],[-122.167853,37.773954],[-122.169806,37.77428],[-122.168868,37.772805],[-122.169968,37.770716],[-122.172091,37.769162],[-122.176989,37.765865],[-122.181121,37.763151],[-122.186654,37.759581],[-122.187571,37.758582],[-122.193616,37.754152],[-122.195815,37.752554],[-122.196018,37.748261],[-122.19635,37.740562],[-122.208188,37.753803],[-122.214902,37.761514],[-122.21821,37.765186],[-122.221016,37.769386],[-122.218525,37.77125],[-122.216661,37.772644],[-122.216188,37.772997],[-122.215823,37.773291]]]}},{"type":"Feature","properties":{"nhood":"E"},"geometry":{"type":"Polygon","coordinates":[[[-122.174191,37.726517],[-122.175549,37.725171],[-122.17913,37.725223],[-122.183127,37.725471],[-122.185582,37.726609],[-122.186894,37.727785],[-122.188851,37.728463],[-122.190826,37.729505],[-122.192301,37.730087],[-122.19811,37.733342],[-122.196687,37.736846],[-122.19635,37.740562],[-122.195815,37.752554],[-122.193616,37.754152],[-122.187571,37.758582],[-122.186654,37.759581],[-122.181121,37.763151],[-122.176989,37.765865],[-122.172091,37.769162],[-122.169968,37.770716],[-122.168868,37.772805],[-122.169806,37.77428],[-122.167853,37.773954],[-122.164022,37.776352],[-122.157137,37.772905],[-122.153705,37.768899],[-122.148695,37.761626],[-122.147645,37.758678],[-122.148515,37.756368],[-122.151001,37.753936],[-122.151712,37.751281],[-122.150816,37.74893],[-122.1497,37.746715],[-122.148893,37.745114],[-122.145345,37.741924],[-122.148442,37.74076],[-122.155055,37.739063],[-122.160775,37.737507],[-122.163075,37.741073],[-122.166032,37.739647],[-122.164795,37.737867],[-122.165975,37.737365],[-122.171608,37.734931],[-122.169643,37.732012],[-122.170254,37.731908],[-122.174092,37.731126],[-122.170516,37.728078],[-122.172524,37.726669],[-122.174191,37.726517]],[[-122.152085,37.752375],[-122.152379,37.752954],[-122.151712,37.751281],[-122.152085,37.752375]],[[-122.19494,37.734425],[-122.195169,37.733732],[-122.193741,37.737488],[-122.19494,37.734425]],[[-122.172761,37.736447],[-122.174148,37.73839],[-122.175357,37.739625],[-122.1768,37.738543],[-122.1785,37.740055],[-122.179686,37.739121],[-122.174811,37.735513],[-122.172761,37.736447]]]}},{"type":"Feature","properties":{"nhood":"F"},"geometry":{"type":"Polygon","coordinates":[[[-122.233314,37.771009],[-122.232412,37.772351],[-122.236012,37.77381],[-122.236263,37.775562],[-122.233142,37.775197],[-122.236187,37.776325],[-122.237783,37.778839],[-122.238553,37.780805],[-122.236828,37.782533],[-122.235946,37.783417],[-122.230063,37.779854],[-122.225513,37.784346],[-122.224575,37.784289],[-122.221646,37.790967],[-122.218639,37.798767],[-122.217346,37.800654],[-122.217345,37.800657],[-122.216153,37.800356],[-122.214311,37.799893],[-122.211764,37.799228],[-122.20989,37.798735],[-122.208739,37.798501],[-122.208687,37.798508],[-122.208354,37.798581],[-122.207974,37.798649],[-122.207835,37.798657],[-122.207714,37.798637],[-122.207281,37.798447],[-122.206565,37.798119],[-122.205227,37.797517],[-122.204784,37.797311],[-122.20462,37.797187],[-122.20395,37.796641],[-122.203329,37.796132],[-122.203327,37.796131],[-122.202921,37.795795],[-122.202395,37.795367],[-122.201821,37.794895],[-122.201442,37.794593],[-122.201307,37.794449],[-122.201015,37.794154],[-122.200621,37.793724],[-122.194818,37.787344],[-122.196029,37.786738],[-122.199768,37.788888],[-122.196017,37.786709],[-122.204183,37.782507],[-122.210592,37.775912],[-122.212901,37.775649],[-122.215823,37.773291],[-122.216188,37.772997],[-122.216661,37.772644],[-122.218525,37.77125],[-122.221016,37.769386],[-122.221707,37.770331],[-122.223735,37.771416],[-122.225094,37.769656],[-122.229816,37.772056],[-122.231201,37.769974],[-122.233314,37.771009]],[[-122.22274,37.783788],[-122.219152,37.782271],[-122.221336,37.783194],[-122.22274,37.783788]],[[-122.210669,37.796556],[-122.215533,37.797991],[-122.215534,37.797991],[-122.210669,37.796556]]]}},{"type":"Feature","properties":{"nhood":"L"},"geometry":{"type":"Polygon","coordinates":[[[-122.196029,37.786738],[-122.194818,37.787344],[-122.200621,37.793724],[-122.201015,37.794154],[-122.201307,37.794449],[-122.201442,37.794593],[-122.201821,37.794895],[-122.202395,37.795367],[-122.202921,37.795795],[-122.203329,37.796132],[-122.20395,37.796641],[-122.20462,37.797187],[-122.204784,37.797311],[-122.205227,37.797517],[-122.206565,37.798119],[-122.207281,37.798447],[-122.207714,37.798637],[-122.207835,37.798657],[-122.207974,37.798649],[-122.208354,37.798581],[-122.208687,37.798508],[-122.208739,37.798501],[-122.20989,37.798735],[-122.211764,37.799228],[-122.214311,37.799893],[-122.216153,37.800356],[-122.217345,37.800657],[-122.217346,37.800654],[-122.218639,37.798767],[-122.224156,37.800013],[-122.228145,37.800743],[-122.233452,37.804295],[-122.238279,37.80703],[-122.24519,37.809164],[-122.247812,37.809973],[-122.248613,37.810221],[-122.250269,37.811571],[-122.251037,37.814308],[-122.252247,37.817383],[-122.25439,37.819568],[-122.252515,37.820981],[-122.249006,37.822032],[-122.248567,37.821631],[-122.248288,37.821137],[-122.247616,37.820595],[-122.24528,37.819327],[-122.2441,37.818941],[-122.239231,37.817895],[-122.232518,37.8164],[-122.21986,37.813584],[-122.2149,37.812447],[-122.218242,37.809143],[-122.217301,37.80797],[-122.215799,37.807069],[-122.213373,37.807666],[-122.21213,37.809992],[-122.207277,37.806469],[-122.201105,37.810568],[-122.19759,37.810744],[-122.193524,37.806423],[-122.186385,37.798837],[-122.184229,37.797171],[-122.180876,37.79237],[-122.181368,37.788677],[-122.177221,37.783792],[-122.188471,37.784522],[-122.194379,37.785615],[-122.196029,37.786738]]]}},{"type":"Feature","properties":{"nhood":"N"},"geometry":{"type":"Polygon","coordinates":[[[-122.278242,37.826974],[-122.278817,37.828931],[-122.276191,37.836294],[-122.276043,37.836908],[-122.281724,37.836661],[-122.281883,37.837171],[-122.284812,37.836711],[-122.289194,37.849981],[-122.286118,37.850479],[-122.283445,37.850809],[-122.281042,37.847173],[-122.27772,37.847545],[-122.276059,37.847764],[-122.27573,37.845868],[-122.270992,37.846519],[-122.269211,37.846771],[-122.26958,37.848634],[-122.268487,37.848779],[-122.269003,37.851703],[-122.260131,37.85277],[-122.253248,37.853742],[-122.252933,37.850719],[-122.252366,37.850791],[-122.25116,37.851346],[-122.241789,37.851936],[-122.246122,37.844431],[-122.243049,37.843316],[-122.248082,37.841406],[-122.246401,37.840754],[-122.248752,37.837079],[-122.250664,37.837212],[-122.250695,37.836825],[-122.24877,37.836145],[-122.249047,37.835819],[-122.247309,37.834459],[-122.243388,37.830072],[-122.24416,37.828353],[-122.245441,37.827561],[-122.250122,37.822853],[-122.249006,37.822032],[-122.252515,37.820981],[-122.25439,37.819568],[-122.254644,37.821723],[-122.256588,37.823208],[-122.258668,37.824393],[-122.259978,37.82232],[-122.268024,37.824261],[-122.278242,37.826974]]]}},{"type":"Feature","properties":{"nhood":"NW"},"geometry":{"type":"Polygon","coordinates":[[[-122.213443,37.81982],[-122.222281,37.826952],[-122.222387,37.828255],[-122.22372,37.829395],[-122.224337,37.82913],[-122.227788,37.83064],[-122.22711,37.832213],[-122.237893,37.84091],[-122.248752,37.837079],[-122.246401,37.840754],[-122.248082,37.841406],[-122.243049,37.843316],[-122.246122,37.844431],[-122.241789,37.851936],[-122.234281,37.852643],[-122.235059,37.857971],[-122.236275,37.857516],[-122.241553,37.857245],[-122.244556,37.858905],[-122.244324,37.862804],[-122.237047,37.862932],[-122.231581,37.865286],[-122.237407,37.866798],[-122.244966,37.866383],[-122.245131,37.869867],[-122.241157,37.870371],[-122.235275,37.86846],[-122.232413,37.870174],[-122.230447,37.871],[-122.22819,37.871254],[-122.227333,37.869219],[-122.225312,37.870324],[-122.224267,37.871729],[-122.222369,37.870171],[-122.220898,37.870773],[-122.219302,37.869967],[-122.217418,37.868339],[-122.219615,37.867256],[-122.220891,37.865594],[-122.219002,37.863538],[-122.220476,37.861329],[-122.215612,37.856116],[-122.222494,37.854797],[-122.221804,37.853283],[-122.223633,37.849512],[-122.226028,37.848561],[-122.228088,37.848853],[-122.227622,37.845928],[-122.226379,37.84423],[-122.224544,37.846278],[-122.224521,37.84486],[-122.223757,37.845457],[-122.21997,37.846446],[-122.217348,37.846736],[-122.209583,37.851783],[-122.203456,37.851848],[-122.202072,37.850657],[-122.200378,37.847794],[-122.198543,37.847511],[-122.19642,37.845451],[-122.196323,37.844582],[-122.194869,37.84357],[-122.195399,37.841923],[-122.19165,37.84057],[-122.188271,37.837941],[-122.185132,37.837206],[-122.183737,37.834372],[-122.186474,37.829793],[-122.185744,37.825121],[-122.186027,37.821866],[-122.195774,37.811001],[-122.197113,37.810926],[-122.19759,37.810744],[-122.201105,37.810568],[-122.207277,37.806469],[-122.21213,37.809992],[-122.213373,37.807666],[-122.215799,37.807069],[-122.217301,37.80797],[-122.218242,37.809143],[-122.2149,37.812447],[-122.214173,37.813094],[-122.21298,37.814841],[-122.212631,37.816475],[-122.21189,37.817448],[-122.21063,37.818339],[-122.213443,37.81982]],[[-122.217521,37.833599],[-122.207567,37.835037],[-122.215388,37.833907],[-122.217521,37.833599]]]}},{"type":"Feature","properties":{"nhood":"S"},"geometry":{"type":"Polygon","coordinates":[[[-122.24602,37.789335],[-122.247291,37.78817],[-122.25587,37.791341],[-122.257517,37.792994],[-122.256669,37.793736],[-122.259652,37.796312],[-122.25938,37.798507],[-122.2581,37.799693],[-122.254933,37.800083],[-122.254371,37.800722],[-122.254614,37.801863],[-122.252867,37.804295],[-122.251284,37.80449],[-122.249138,37.808359],[-122.249875,37.808613],[-122.248613,37.810221],[-122.247812,37.809973],[-122.24519,37.809164],[-122.238279,37.80703],[-122.233452,37.804295],[-122.228145,37.800743],[-122.226676,37.800474],[-122.224156,37.800013],[-122.218639,37.798767],[-122.221646,37.790967],[-122.224575,37.784289],[-122.225513,37.784346],[-122.230063,37.779854],[-122.235946,37.783417],[-122.24602,37.789335]],[[-122.241276,37.799369],[-122.236779,37.79537],[-122.23793,37.796393],[-122.241276,37.799369]],[[-122.238081,37.80165],[-122.240568,37.799953],[-122.241276,37.799369],[-122.238081,37.80165]],[[-122.245461,37.790145],[-122.240166,37.79383],[-122.242977,37.791899],[-122.245461,37.790145]],[[-122.233321,37.799546],[-122.233065,37.798763],[-122.233119,37.796605],[-122.230632,37.797554],[-122.229409,37.7989],[-122.233321,37.799546]]]}},{"type":"Feature","properties":{"nhood":"SE"},"geometry":{"type":"MultiPolygon","coordinates":[[[[-122.129477,37.736678],[-122.129137,37.734505],[-122.130417,37.73333],[-122.135035,37.734344],[-122.136404,37.731808],[-122.138608,37.730786],[-122.140633,37.733857],[-122.142704,37.739208],[-122.14147,37.740606],[-122.129477,37.736678]]],[[[-122.150816,37.74893],[-122.151712,37.751281],[-122.151001,37.753936],[-122.148515,37.756368],[-122.147645,37.758678],[-122.148695,37.761626],[-122.153705,37.768899],[-122.157137,37.772905],[-122.164022,37.776352],[-122.171819,37.780155],[-122.177221,37.783792],[-122.181368,37.788677],[-122.180876,37.79237],[-122.184229,37.797171],[-122.186385,37.798837],[-122.190442,37.803148],[-122.193524,37.806423],[-122.19759,37.810744],[-122.197113,37.810926],[-122.195774,37.811001],[-122.192846,37.810365],[-122.191333,37.809611],[-122.188816,37.809807],[-122.186959,37.809252],[-122.185034,37.809711],[-122.183243,37.809675],[-122.181266,37.808862],[-122.180472,37.808251],[-122.178893,37.80493],[-122.178251,37.80423],[-122.177167,37.804902],[-122.176365,37.80437],[-122.17563,37.803796],[-122.175904,37.802723],[-122.170449,37.800308],[-122.169997,37.801309],[-122.170502,37.802431],[-122.17143,37.804473],[-122.171193,37.805358],[-122.167061,37.806911],[-122.163466,37.80516],[-122.166794,37.803988],[-122.166881,37.80294],[-122.165106,37.801803],[-122.164103,37.800137],[-122.159579,37.800003],[-122.158277,37.79801],[-122.152153,37.795556],[-122.15244,37.793811],[-122.149654,37.794483],[-122.146453,37.793107],[-122.143675,37.790303],[-122.142872,37.790684],[-122.141589,37.789512],[-122.14339,37.787475],[-122.140491,37.784066],[-122.133351,37.777897],[-122.121705,37.758305],[-122.118541,37.754332],[-122.115817,37.749981],[-122.115786,37.748316],[-122.129865,37.742938],[-122.142579,37.745764],[-122.145345,37.741924],[-122.148893,37.745114],[-122.1497,37.746715],[-122.150816,37.74893]],[[-122.142317,37.782724],[-122.155044,37.773364],[-122.140491,37.784066],[-122.142317,37.782724]]]]}},{"type":"Feature","properties":{"nhood":"W"},"geometry":{"type":"Polygon","coordinates":[[[-122.30474,37.802932],[-122.310132,37.808734],[-122.301432,37.81385],[-122.294528,37.81941],[-122.29231,37.82172],[-122.290849,37.826252],[-122.289933,37.826438],[-122.281572,37.82781],[-122.278684,37.827038],[-122.278242,37.826974],[-122.268024,37.824261],[-122.271022,37.816803],[-122.272708,37.81261],[-122.275827,37.80947],[-122.277308,37.80673],[-122.27847,37.804577],[-122.280554,37.801152],[-122.283006,37.797336],[-122.295058,37.801019],[-122.30474,37.802932]],[[-122.2851,37.81238],[-122.279818,37.811128],[-122.290501,37.81376],[-122.2851,37.81238]]]}}]}